[{"OBJECT_NAME":"STARLINK-33898","OBJECT_ID":"2025-101J","EPOCH":"2026-03-09T04:21:36.497952","MEAN_MOTION":15.27592458,"ECCENTRICITY":0.00022138,"INCLINATION":43.0071,"RA_OF_ASC_NODE":1.1709,"ARG_OF_PERICENTER":260.0031,"MEAN_ANOMALY":100.0571,"EPHEMERIS_TYPE":0,"CLASSIFICATION_TYPE":"U","NORAD_CAT_ID":64002,"ELEMENT_SET_NO":999,"REV_AT_EPOCH":4697,"BSTAR":0.0013008936,"MEAN_MOTION_DOT":0.00035724,"MEAN_MOTION_DDOT":0},{"OBJECT_NAME":"POEM","OBJECT_ID":"2022-072E","EPOCH":"2026-03-08T08:06:01.299456","MEAN_MOTION":15.22764653,"ECCENTRICITY":0.00236837,"INCLINATION":9.9515,"RA_OF_ASC_NODE":116.6548,"ARG_OF_PERICENTER":142.2805,"MEAN_ANOMALY":217.9074,"EPHEMERIS_TYPE":0,"CLASSIFICATION_TYPE":"U","NORAD_CAT_ID":52939,"ELEMENT_SET_NO":999,"REV_AT_EPOCH":20410,"BSTAR":0.00045784559,"MEAN_MOTION_DOT":0.00012084,"MEAN_MOTION_DDOT":0}]
